{"type": "FeatureCollection", "features": [ {"type": "Feature", "properties": {"norad_id": 66656, "name": "2025-274G", "group": "last-30-days", "lat": 17.623878487393593, "lon": -75.34764936680503, "alt_km": 599.9966838009886, "timestamp": "2025-12-26T03:50:10.806136+00:00", "meta": {"OBJECT_NAME": "2025-274G", "OBJECT_ID": "2025-274G", "EPOCH": "2025-12-25T16:29:32.161920", "MEAN_MOTION": 14.92349038, "ECCENTRICITY": 0.0012956, "INCLINATION": 97.7403, "RA_OF_ASC_NODE": 286.6643, "ARG_OF_PERICENTER": 209.015, "MEAN_ANOMALY": 151.035, "EPHEMERIS_TYPE": 0, "CLASSIFICATION_TYPE": "U", "NORAD_CAT_ID": 66656, "ELEMENT_SET_NO": 999, "REV_AT_EPOCH": 433, "BSTAR": 0.0003589, "MEAN_MOTION_DOT": 3.62e-05, "MEAN_MOTION_DDOT": 0}, "tle": {"line1": "1 66656U 25274G   25359.68717780  .00003620  00000+0  35890-3 0  9995", "line2": "2 66656  97.7403 286.6643 0012956 209.0150 151.0350 14.92349038  4334"}}, "geometry": {"type": "Point", "coordinates": [-75.34764936680503, 17.623878487393593]}}, {"type": "Feature", "properties": {"norad_id": 66657, "name": "SPIRONE", "group": "last-30-days", "lat": 36.37921673617021, "lon": -78.61445808589266, "alt_km": 595.106243893576, "timestamp": "2025-12-26T03:50:10.806146+00:00", "meta": {"OBJECT_NAME": "SPIRONE", "OBJECT_ID": "2025-274H", "EPOCH": "2025-12-25T18:01:04.033632", "MEAN_MOTION": 14.92527899, "ECCENTRICITY": 0.001096, "INCLINATION": 97.74, "RA_OF_ASC_NODE": 286.734, "ARG_OF_PERICENTER": 226.2948, "MEAN_ANOMALY": 133.7364, "EPHEMERIS_TYPE": 0, "CLASSIFICATION_TYPE": "U", "NORAD_CAT_ID": 66657, "ELEMENT_SET_NO": 999, "REV_AT_EPOCH": 434, "BSTAR": 0.00036151, "MEAN_MOTION_DOT": 3.661e-05, "MEAN_MOTION_DDOT": 0}, "tle": {"line1": "1 66657U 25274H   25359.75074113  .00003661  00000+0  36151-3 0  9996", "line2": "2 66657  97.7400 286.7340 0010960 226.2948 133.7364 14.92527899  4342"}}, "geometry": {"type": "Point", "coordinates": [-78.61445808589266, 36.37921673617021]}}, {"type": "Feature", "properties": {"norad_id": 66658, "name": "2025-274J", "group": "last-30-days", "lat": 54.366466958948266, "lon": -83.79348261028481, "alt_km": 592.2871859023362, "timestamp": "2025-12-26T03:50:10.806158+00:00", "meta": {"OBJECT_NAME": "2025-274J", "OBJECT_ID": "2025-274J", "EPOCH": "2025-12-25T17:56:13.034112", "MEAN_MOTION": 14.927091, "ECCENTRICITY": 0.0011464, "INCLINATION": 97.74, "RA_OF_ASC_NODE": 286.7386, "ARG_OF_PERICENTER": 229.5134, "MEAN_ANOMALY": 130.5087, "EPHEMERIS_TYPE": 0, "CLASSIFICATION_TYPE": "U", "NORAD_CAT_ID": 66658, "ELEMENT_SET_NO": 999, "REV_AT_EPOCH": 434, "BSTAR": 0.00051473, "MEAN_MOTION_DOT": 5.263e-05, "MEAN_MOTION_DDOT": 0}, "tle": {"line1": "1 66658U 25274J   25359.74737308  .00005263  00000+0  51473-3 0  9992", "line2": "2 66658  97.7400 286.7386 0011464 229.5134 130.5087 14.92709100  4340"}}, "geometry": {"type": "Point", "coordinates": [-83.79348261028481, 54.366466958948266]}}, {"type": "Feature", "properties": {"norad_id": 66659, "name": "JACK K", "group": "last-30-days", "lat": 72.8119207056388, "lon": -98.93257278802065, "alt_km": 589.7158962469221, "timestamp": "2025-12-26T03:50:10.806168+00:00", "meta": {"OBJECT_NAME": "JACK K", "OBJECT_ID": "2025-274K", "EPOCH": "2025-12-25T17:51:03.115584", "MEAN_MOTION": 14.92878978, "ECCENTRICITY": 0.0012214, "INCLINATION": 97.7403, "RA_OF_ASC_NODE": 286.7439, "ARG_OF_PERICENTER": 231.5343, "MEAN_ANOMALY": 128.4781, "EPHEMERIS_TYPE": 0, "CLASSIFICATION_TYPE": "U", "NORAD_CAT_ID": 66659, "ELEMENT_SET_NO": 999, "REV_AT_EPOCH": 434, "BSTAR": 0.00032014, "MEAN_MOTION_DOT": 3.265e-05, "MEAN_MOTION_DDOT": 0}, "tle": {"line1": "1 66659U 25274K   25359.74378606  .00003265  00000+0  32014-3 0  9995", "line2": "2 66659  97.7403 286.7439 0012214 231.5343 128.4781 14.92878978  4349"}}, "geometry": {"type": "Point", "coordinates": [-98.93257278802065, 72.8119207056388]}}, {"type": "Feature", "properties": {"norad_id": 66660, "name": "K-HERO", "group": "last-30-days", "lat": 82.23648743590613, "lon": -166.754475553189, "alt_km": 587.9136140300097, "timestamp": "2025-12-26T03:50:10.806178+00:00", "meta": {"OBJECT_NAME": "K-HERO", "OBJECT_ID": "2025-274L", "EPOCH": "2025-12-25T19:23:20.954688", "MEAN_MOTION": 14.93030361, "ECCENTRICITY": 0.0012851, "INCLINATION": 97.7404, "RA_OF_ASC_NODE": 286.8151, "ARG_OF_PERICENTER": 232.0966, "MEAN_ANOMALY": 127.9092, "EPHEMERIS_TYPE": 0, "CLASSIFICATION_TYPE": "U", "NORAD_CAT_ID": 66660, "ELEMENT_SET_NO": 999, "REV_AT_EPOCH": 435, "BSTAR": 0.00030942, "MEAN_MOTION_DOT": 3.167e-05, "MEAN_MOTION_DDOT": 0}, "tle": {"line1": "1 66660U 25274L   25359.80788142  .00003167  00000+0  30942-3 0  9993", "line2": "2 66660  97.7404 286.8151 0012851 232.0966 127.9092 14.93030361  4355"}}, "geometry": {"type": "Point", "coordinates": [-166.754475553189, 82.23648743590613]}}, {"type": "Feature", "properties": {"norad_id": 66661, "name": "SNUGLITE-III", "group": "last-30-days", "lat": 72.59886945850869, "lon": 132.8872167280153, "alt_km": 586.7292401645545, "timestamp": "2025-12-26T03:50:10.806188+00:00", "meta": {"OBJECT_NAME": "SNUGLITE-III", "OBJECT_ID": "2025-274M", "EPOCH": "2025-12-25T17:42:50.630400", "MEAN_MOTION": 14.93161533, "ECCENTRICITY": 0.0013466, "INCLINATION": 97.7401, "RA_OF_ASC_NODE": 286.7518, "ARG_OF_PERICENTER": 233.865, "MEAN_ANOMALY": 126.1324, "EPHEMERIS_TYPE": 0, "CLASSIFICATION_TYPE": "U", "NORAD_CAT_ID": 66661, "ELEMENT_SET_NO": 999, "REV_AT_EPOCH": 434, "BSTAR": 0.00027774, "MEAN_MOTION_DOT": 2.847e-05, "MEAN_MOTION_DDOT": 0}, "tle": {"line1": "1 66661U 25274M   25359.73808600  .00002847  00000+0  27774-3 0  9991", "line2": "2 66661  97.7401 286.7518 0013466 233.8650 126.1324 14.93161533  4345"}}, "geometry": {"type": "Point", "coordinates": [132.8872167280153, 72.59886945850869]}}, {"type": "Feature", "properties": {"norad_id": 66662, "name": "2025-274N", "group": "last-30-days", "lat": 67.08458044306347, "lon": 125.93828907066307, "alt_km": 586.3082288855012, "timestamp": "2025-12-26T03:50:10.806197+00:00", "meta": {"OBJECT_NAME": "2025-274N", "OBJECT_ID": "2025-274N", "EPOCH": "2025-12-25T17:41:15.359712", "MEAN_MOTION": 14.93217932, "ECCENTRICITY": 0.0013907, "INCLINATION": 97.7402, "RA_OF_ASC_NODE": 286.7537, "ARG_OF_PERICENTER": 233.6564, "MEAN_ANOMALY": 126.3373, "EPHEMERIS_TYPE": 0, "CLASSIFICATION_TYPE": "U", "NORAD_CAT_ID": 66662, "ELEMENT_SET_NO": 999, "REV_AT_EPOCH": 434, "BSTAR": 0.00029062, "MEAN_MOTION_DOT": 2.986e-05, "MEAN_MOTION_DDOT": 0}, "tle": {"line1": "1 66662U 25274N   25359.73698333  .00002986  00000+0  29062-3 0  9998", "line2": "2 66662  97.7402 286.7537 0013907 233.6564 126.3373 14.93217932  4341"}}, "geometry": {"type": "Point", "coordinates": [125.93828907066307, 67.08458044306347]}}, {"type": "Feature", "properties": {"norad_id": 66663, "name": "KSLV-II R/B", "group": "last-30-days", "lat": -18.93701183026123, "lon": 104.70440950638766, "alt_km": 567.7227609332795, "timestamp": "2025-12-26T03:50:10.806209+00:00", "meta": {"OBJECT_NAME": "KSLV-II R/B", "OBJECT_ID": "2025-274P", "EPOCH": "2025-12-23T05:59:25.426176", "MEAN_MOTION": 14.97536982, "ECCENTRICITY": 0.00600006, "INCLINATION": 97.7435, "RA_OF_ASC_NODE": 284.4956, "ARG_OF_PERICENTER": 282.7951, "MEAN_ANOMALY": 76.657, "EPHEMERIS_TYPE": 0, "CLASSIFICATION_TYPE": "U", "NORAD_CAT_ID": 66663, "ELEMENT_SET_NO": 999, "REV_AT_EPOCH": 398, "BSTAR": 0.0011394408, "MEAN_MOTION_DOT": 0.00013749, "MEAN_MOTION_DDOT": 0}, "tle": {"line1": "1 66663U 25274P   25357.24959984  .00013749  00000+0  11394-2 0  9992", "line2": "2 66663  97.7435 284.4956 0060000 282.7951  76.6570 14.97536982  3987"}}, "geometry": {"type": "Point", "coordinates": [104.70440950638766, -18.93701183026123]}}, {"type": "Feature", "properties": {"norad_id": 66664, "name": "SOYUZ-MS 28", "group": "last-30-days", "lat": 46.1849653077973, "lon": 131.67562446861763, "alt_km": 412.1339618809734, "timestamp": "2025-12-26T03:50:10.806220+00:00", "meta": {"OBJECT_NAME": "SOYUZ-MS 28", "OBJECT_ID": "2025-275A", "EPOCH": "2025-12-25T13:37:14.375136", "MEAN_MOTION": 15.49813539, "ECCENTRICITY": 0.0003224, "INCLINATION": 51.6318, "RA_OF_ASC_NODE": 78.9495, "ARG_OF_PERICENTER": 299.9641, "MEAN_ANOMALY": 60.1027, "EPHEMERIS_TYPE": 0, "CLASSIFICATION_TYPE": "U", "NORAD_CAT_ID": 66664, "ELEMENT_SET_NO": 999, "REV_AT_EPOCH": 443, "BSTAR": 0.00025591, "MEAN_MOTION_DOT": 0.00014081, "MEAN_MOTION_DDOT": 0}, "tle": {"line1": "1 66664U 25275A   25359.56752749  .00014081  00000+0  25591-3 0  9996", "line2": "2 66664  51.6318  78.9495 0003224 299.9641  60.1027 15.49813539  4432"}}, "geometry": {"type": "Point", "coordinates": [131.67562446861763, 46.1849653077973]}}, {"type": "Feature", "properties": {"norad_id": 66666, "name": "FORMOSAT-8A", "group": "last-30-days", "lat": -39.01545120660389, "lon": 78.1609960122604, "alt_km": 574.3375764525663, "timestamp": "2025-12-26T03:50:10.806230+00:00", "meta": {"OBJECT_NAME": "FORMOSAT-8A", "OBJECT_ID": "2025-276A", "EPOCH": "2025-12-25T18:24:29.619072", "MEAN_MOTION": 15.00362968, "ECCENTRICITY": 0.0004033, "INCLINATION": 97.6575, "RA_OF_ASC_NODE": 71.516, "ARG_OF_PERICENTER": 184.6563, "MEAN_ANOMALY": 175.4624, "EPHEMERIS_TYPE": 0, "CLASSIFICATION_TYPE": "U", "NORAD_CAT_ID": 66666, "ELEMENT_SET_NO": 999, "REV_AT_EPOCH": 404, "BSTAR": 0.00034905, "MEAN_MOTION_DOT": 4.324e-05, "MEAN_MOTION_DDOT": 0}, "tle": {"line1": "1 66666U 25276A   25359.76700948  .00004324  00000+0  34905-3 0  9993", "line2": "2 66666  97.6575  71.5160 0004033 184.6563 175.4624 15.00362968  4041"}}, "geometry": {"type": "Point", "coordinates": [78.1609960122604, -39.01545120660389]}}]}